NORAD_CAT_ID,OBJECT_NAME,OBJECT_TYPE,EPOCH,MEAN_MOTION,ECCENTRICITY,INCLINATION,RA_OF_ASC_NODE,ARG_OF_PERICENTER,MEAN_ANOMALY,BSTAR,MEAN_MOTION_DOT,MEAN_MOTION_DDOT,TLE_LINE0,TLE_LINE1,TLE_LINE2,SEMIMAJOR_AXIS,PERIOD,APOGEE,PERIGEE,DECAYED
56449.0,STARLINK-5993,PAYLOAD,2023-06-06 23:43:26,15.69925188,0.0003455,69.9979,168.6675,266.6499,93.4302,6.7803e-06,6.03e-06,0.0,0 STARLINK-5993,1 56449U 23064B   23157.98850017  .00000603  00000-0  67803-5 0  9997,2 56449  69.9979 168.6675 0003455 266.6499  93.4302 15.69925188  4657,6737.248,91.724,361.441,356.785,0.0
56449.0,STARLINK-5993,PAYLOAD,2023-06-07 04:18:42,15.6991597,0.0003244,69.9975,168.1294,262.0408,98.042,4.7082e-06,3.53e-06,0.0,0 STARLINK-5993,1 56449U 23064B   23158.17965723  .00000353  00000-0  47082-5 0  9999,2 56449  69.9975 168.1294 0003244 262.0408  98.0420 15.69915970  4684,6737.274,91.725,361.325,356.954,0.0
56449.0,STARLINK-5993,PAYLOAD,2023-06-07 11:57:27,15.69920247,0.0003249,69.9967,167.2327,260.4725,99.6104,9.1504e-06,8.87e-06,0.0,0 STARLINK-5993,1 56449U 23064B   23158.49823789  .00000887  00000-0  91504-5 0  9999,2 56449  69.9967 167.2327 0003249 260.4725  99.6104 15.69920247  4387,6737.262,91.724,361.316,356.938,0.0
56449.0,STARLINK-5993,PAYLOAD,2023-06-08 07:50:34,15.69661308,0.0004533,69.9975,164.9054,274.6803,85.3874,-0.00028016,-0.00033413,0.0,0 STARLINK-5993,1 56449U 23064B   23159.32678952 -.00033413  00000-0 -28016-3 0  9991,2 56449  69.9975 164.9054 0004533 274.6803  85.3874 15.69661308  4867,6738.003,91.74,362.922,356.814,0.0
56449.0,STARLINK-5993,PAYLOAD,2023-06-09 03:44:55,15.68636672,0.0004543,69.9966,162.5811,284.1298,75.9392,-0.0011852,-0.00133281,0.0,0 STARLINK-5993,1 56449U 23064B   23160.15619610 -.00133281  00000-0 -11852-2 0  9993,2 56449  69.9966 162.5811 0004543 284.1298  75.9392 15.68636672  4996,6740.937,91.799,365.864,359.74,0.0
56449.0,STARLINK-5993,PAYLOAD,2023-06-09 14:00:01,15.66876421,0.0003389,69.9994,161.3828,270.6685,341.5334,-0.010104,-0.00972156,0.0,0 STARLINK-5993,1 56449U 23064B   23160.58334491 -.00972156  00000-0 -10104-1 0  9991,2 56449  69.9994 161.3828 0003389 270.6685 341.5334 15.66876421  5062,6745.985,91.903,370.136,365.563,0.0
56449.0,STARLINK-5993,PAYLOAD,2023-06-09 22:00:00,15.66182489,0.0003528,69.9996,160.4505,265.4373,66.018,-0.009423,-0.0088919,0.0,0 STARLINK-5993,1 56449U 23064B   23160.91667824 -.00889190  00000-0 -94230-2 0  9995,2 56449  69.9996 160.4505 0003528 265.4373  66.0180 15.66182489  1302,6747.977,91.943,372.223,367.461,0.0
56449.0,STARLINK-5993,PAYLOAD,2023-06-10 06:00:02,15.65512344,0.0003424,69.9997,159.5189,272.5381,137.4574,-0.009562,-0.00879169,0.0,0 STARLINK-5993,1 56449U 23064B   23161.25002315 -.00879169  00000-0 -95620-2 0  9990,2 56449  69.9997 159.5189 0003424 272.5381 137.4574 15.65512344  5167,6749.903,91.983,374.079,369.457,0.0
56449.0,STARLINK-5993,PAYLOAD,2023-06-10 14:00:01,15.64911169,0.0003199,69.9995,158.5882,274.5172,213.0734,-0.010778,-0.00959273,0.0,0 STARLINK-5993,1 56449U 23064B   23161.58334491 -.00959273  00000-0 -10778-1 0  9994,2 56449  69.9995 158.5882 0003199 274.5172 213.0734 15.64911169  1301,6751.631,92.018,375.656,371.336,0.0
56449.0,STARLINK-5993,PAYLOAD,2023-06-10 22:00:00,15.64241231,0.0003242,69.9997,157.6588,265.2174,299.2711,-0.010485,-0.00913047,0.0,0 STARLINK-5993,1 56449U 23064B   23161.91667824 -.00913047  00000-0 -10485-1 0  9994,2 56449  69.9997 157.6588 0003242 265.2174 299.2711 15.64241231  5271,6753.559,92.057,377.613,373.234,0.0
56449.0,STARLINK-5993,PAYLOAD,2023-06-11 14:00:01,15.62949382,0.0003384,69.9992,155.802,271.5011,84.4359,-0.011543,-0.00951391,0.0,0 STARLINK-5993,1 56449U 23064B   23162.58334491 -.00951391  00000-0 -11543-1 0  9999,2 56449  69.9992 155.8020 0003384 271.5011  84.4359 15.62949382  1306,6757.28,92.134,381.431,376.858,0.0
56449.0,STARLINK-5993,PAYLOAD,2023-06-11 22:00:00,15.62282972,0.0003384,69.9993,154.8749,267.1804,163.3075,-0.011308,-0.00911792,0.0,0 STARLINK-5993,1 56449U 23064B   23162.91667824 -.00911792  00000-0 -11308-1 0  9995,2 56449  69.9993 154.8749 0003384 267.1804 163.3075 15.62282972  1302,6759.201,92.173,383.354,378.779,0.0
56449.0,STARLINK-5993,PAYLOAD,2023-06-12 14:00:01,15.60997207,0.0003202,69.999,153.0235,273.463,303.8435,-0.012607,-0.00961798,0.0,0 STARLINK-5993,1 56449U 23064B   23163.58335648 -.00961798  00000-0 -12607-1 0  9999,2 56449  69.9990 153.0235 0003202 273.4630 303.8435 15.60997207  5538,6762.912,92.249,386.943,382.612,0.0
56449.0,STARLINK-5993,PAYLOAD,2023-06-12 22:00:00,15.60330542,0.0003452,69.9992,152.0995,266.8062,22.636,-0.012235,-0.00914406,0.0,0 STARLINK-5993,1 56449U 23064B   23163.91667824 -.00914406  00000-0 -12235-1 0  9991,2 56449  69.9992 152.0995 0003452 266.8062  22.6360 15.60330542  1301,6764.839,92.288,389.039,384.368,0.0
56449.0,STARLINK-5993,PAYLOAD,2023-06-13 14:00:01,15.59032181,0.0003716,69.9984,150.2533,273.3815,158.1237,-0.013313,-0.00943895,0.0,0 STARLINK-5993,1 56449U 23064B   23164.58334491 -.00943895  00000-0 -13313-1 0  9998,2 56449  69.9984 150.2533 0003716 273.3815 158.1237 15.59032181  5692,6768.594,92.365,392.974,387.944,0.0
56449.0,STARLINK-5993,PAYLOAD,2023-06-13 22:00:00,15.58376873,0.0003555,69.9986,149.3316,268.089,233.2698,-0.013305,-0.00922214,0.0,0 STARLINK-5993,1 56449U 23064B   23164.91667824 -.00922214  00000-0 -13305-1 0  9997,2 56449  69.9986 149.3316 0003555 268.0890 233.2698 15.58376873  1305,6770.491,92.404,394.763,389.949,0.0
56449.0,STARLINK-5993,PAYLOAD,2023-06-14 06:00:00,15.57684868,0.0003518,69.9987,148.4109,272.6523,297.8025,-0.01293,-0.00877283,0.0,0 STARLINK-5993,1 56449U 23064B   23165.25001157 -.00877283  00000-0 -12930-1 0  9994,2 56449  69.9987 148.4109 0003518 272.6523 297.8025 15.57684868  5791,6772.496,92.445,396.744,391.979,0.0
56449.0,STARLINK-5993,PAYLOAD,2023-06-14 14:00:01,15.5707675,0.0003476,69.9984,147.491,270.0257,8.7048,-0.014443,-0.00950338,0.0,0 STARLINK-5993,1 56449U 23064B   23165.58334491 -.00950338  00000-0 -14443-1 0  9994,2 56449  69.9984 147.4910 0003476 270.0257   8.7048 15.57076750  1308,6774.259,92.481,398.479,393.77,0.0
56449.0,STARLINK-5993,PAYLOAD,2023-06-14 22:00:00,15.56419582,0.0003584,69.9986,146.5722,266.1599,80.076,-0.014314,-0.00921847,0.0,0 STARLINK-5993,1 56449U 23064B   23165.91667824 -.00921847  00000-0 -14314-1 0  9990,2 56449  69.9986 146.5722 0003584 266.1599  80.0760 15.56419582  5891,6776.166,92.52,400.46,395.603,0.0
56449.0,STARLINK-5993,PAYLOAD,2023-06-15 14:00:01,15.55119612,0.000342,69.9982,144.7369,273.8426,205.0724,-0.015548,-0.00951096,0.0,0 STARLINK-5993,1 56449U 23064B   23166.58334491 -.00951096  00000-0 -15548-1 0  9994,2 56449  69.9982 144.7369 0003420 273.8426 205.0724 15.55119612  1308,6779.942,92.597,404.126,399.488,0.0
56449.0,STARLINK-5993,PAYLOAD,2023-06-15 20:00:01,15.54592267,0.0003436,69.9985,144.0497,269.5574,168.3091,-0.014324,-0.00867176,0.0,0 STARLINK-5993,1 56449U 23064B   23166.83334491 -.00867176  00000-0 -14324-1 0  9998,2 56449  69.9985 144.0497 0003436 269.5574 168.3091 15.54592267  1307,6781.475,92.629,405.67,401.01,0.0
56449.0,STARLINK-5993,PAYLOAD,2023-06-16 06:00:00,15.5376053,0.0003316,69.9987,142.9055,271.4905,336.9838,-0.014525,-0.00854116,0.0,0 STARLINK-5993,1 56449U 23064B   23167.25001157 -.00854116  00000-0 -14525-1 0  9998,2 56449  69.9987 142.9055 0003316 271.4905 336.9838 15.53760530  6107,6783.895,92.678,408.01,403.51,0.0
56449.0,STARLINK-5993,PAYLOAD,2023-06-16 14:00:01,15.53156726,0.0003388,69.9983,141.9909,269.5019,42.5577,-0.016549,-0.00942886,0.0,0 STARLINK-5993,1 56449U 23064B   23167.58334491 -.00942886  00000-0 -16549-1 0  9994,2 56449  69.9983 141.9909 0003388 269.5019  42.5577 15.53156726  1306,6785.653,92.714,409.817,405.219,0.0
56449.0,STARLINK-5993,PAYLOAD,2023-06-16 22:00:00,15.52518631,0.0003439,69.9987,141.0774,265.499,109.365,-0.016963,-0.00957626,0.0,0 STARLINK-5993,1 56449U 23064B   23167.91667824 -.00957626  00000-0 -16963-1 0  9998,2 56449  69.9987 141.0774 0003439 265.4990 109.3650 15.52518631  6205,6787.512,92.753,411.711,407.043,0.0
56449.0,STARLINK-5993,PAYLOAD,2023-06-17 10:19:34,15.53128888,0.0002628,69.9967,139.678,257.5699,102.5194,-0.0042029,-0.0025613,0.0,0 STARLINK-5993,1 56449U 23064B   23168.43025525 -.00256130  00000-0 -42029-2 0  9997,2 56449  69.9967 139.6780 0002628 257.5699 102.5194 15.53128888  5939,6785.734,92.716,409.382,405.816,0.0
56449.0,STARLINK-5993,PAYLOAD,2023-06-17 14:00:01,15.51239534,0.0003014,69.9986,139.2529,269.842,228.3296,-0.00084391,-0.00049452,0.0,0 STARLINK-5993,1 56449U 23064B   23168.58334491 -.00049452  00000-0 -84391-3 0  9994,2 56449  69.9986 139.2529 0003014 269.8420 228.3296 15.51239534  6317,6791.243,92.829,415.155,411.061,0.0
56449.0,STARLINK-5993,PAYLOAD,2023-06-17 22:00:01,15.51289104,0.0003025,69.9991,138.3419,262.9367,296.1852,-0.002713,-0.0015677,0.0,0 STARLINK-5993,1 56449U 23064B   23168.91668981 -.00156770  00000-0 -27130-2 0  9994,2 56449  69.9991 138.3419 0003025 262.9367 296.1852 15.51289104  1300,6791.098,92.826,415.018,410.909,0.0
56449.0,STARLINK-5993,PAYLOAD,2023-06-18 06:00:00,15.51240269,0.0003176,69.9989,137.4306,268.645,351.3524,-0.016267,-0.00871522,0.0,0 STARLINK-5993,1 56449U 23064B   23169.25001157 -.00871522  00000-0 -16267-1 0  9995,2 56449  69.9989 137.4306 0003176 268.6450 351.3524 15.51240269  6411,6791.241,92.829,415.263,410.949,0.0
56449.0,STARLINK-5993,PAYLOAD,2023-06-18 14:00:01,15.50613782,0.0003312,69.9988,136.5195,264.8107,55.8067,-0.017741,-0.00937061,0.0,0 STARLINK-5993,1 56449U 23064B   23169.58335648 -.00937061  00000-0 -17741-1 0  9995,2 56449  69.9988 136.5195 0003312 264.8107  55.8067 15.50613782  1309,6793.07,92.866,417.185,412.685,0.0
56449.0,STARLINK-5993,PAYLOAD,2023-06-18 22:00:00,15.49981942,0.0003413,69.9993,135.6097,263.1973,117.1214,-0.018418,-0.00950096,0.0,0 STARLINK-5993,1 56449U 23064B   23169.91667824 -.00950096  00000-0 -18418-1 0  9991,2 56449  69.9993 135.6097 0003413 263.1973 117.1214 15.49981942  6519,6794.916,92.904,419.1,414.462,0.0
